[{"OBJECT_NAME":"YAOGAN-30 03B","OBJECT_ID":"2017-075B","EPOCH":"2026-03-09T15:51:36.398016","MEAN_MOTION":15.02124587,"ECCENTRICITY":0.00025102,"INCLINATION":34.9935,"RA_OF_ASC_NODE":156.605,"ARG_OF_PERICENTER":89.1241,"MEAN_ANOMALY":270.9754,"EPHEMERIS_TYPE":0,"CLASSIFICATION_TYPE":"U","NORAD_CAT_ID":43029,"ELEMENT_SET_NO":999,"REV_AT_EPOCH":45238,"BSTAR":0.0003112917,"MEAN_MOTION_DOT":4.149e-5,"MEAN_MOTION_DDOT":0},{"OBJECT_NAME":"RAAF M1","OBJECT_ID":"2018-099X","EPOCH":"2026-03-09T15:51:10.230048","MEAN_MOTION":15.07065376,"ECCENTRICITY":0.00134971,"INCLINATION":97.4534,"RA_OF_ASC_NODE":114.8325,"ARG_OF_PERICENTER":21.6261,"MEAN_ANOMALY":338.5534,"EPHEMERIS_TYPE":0,"CLASSIFICATION_TYPE":"U","NORAD_CAT_ID":43779,"ELEMENT_SET_NO":999,"REV_AT_EPOCH":39714,"BSTAR":0.00026511092,"MEAN_MOTION_DOT":3.923e-5,"MEAN_MOTION_DDOT":0}]
